CUTE-1 (CO-55)          
1 27844U 03031E   25037.92051951  .00000810  00000+0  37300-3 0  9995
2 27844  98.6788  47.7727 0009694 177.1638 182.9597 14.23807404121185
CUBESAT XI-IV (CO-57)   
1 27848U 03031J   25037.46108470  .00000707  00000+0  33212-3 0  9990
2 27848  98.6815  47.4158 0009245 195.5019 164.5878 14.23169201120851
CUBESAT XI-V            
1 28895U 05043F   25037.36818301  .00003751  00000+0  63143-3 0  9996
2 28895  98.2277 180.3955 0014546 340.8373  19.2284 14.70101266 29069
CUTE-1.7+APD II (CO-65) 
1 32785U 08021C   25037.87403983  .00010034  00000+0  76824-3 0  9992
2 32785  97.7662   8.4358 0008777 269.9730  90.0488 15.02045889910648
AAUSAT-II               
1 32788U 08021F   25038.42709062  .00090198  00000+0  18036-2 0  9993
2 32788  97.6050  29.7578 0007512  84.7605 275.4501 15.46432878914376
CANX-2                  
1 32790U 08021H   25038.83230053  .00007447  00000+0  60634-3 0  9997
2 32790  97.7959   7.9533 0010908 260.2086  99.7905 14.99770231910639
SEEDS II (CO-66)        
1 32791U 08021J   25037.44327043  .00019058  00000+0  10629-2 0  9999
2 32791  97.7169  15.2591 0003006 195.6503 164.4636 15.13615369911836
SWISSCUBE               
1 35932U 09051B   25037.90958674  .00002693  00000+0  56209-3 0  9996
2 35932  98.4448 291.7984 0006293 321.8767  38.1987 14.60743229816802
BEESAT-1                
1 35933U 09051C   25037.63235054  .00002333  00000+0  49356-3 0  9993
2 35933  98.4380 292.0818 0005008 340.4166  19.6840 14.60243967816829
ITUPSAT1                
1 35935U 09051E   25037.68662068  .00002147  00000+0  46662-3 0  9999
2 35935  98.4471 291.7740 0007392 344.2362  15.8605 14.59082742816445
TISAT 1                 
1 36799U 10035E   25038.69324563  .00017935  00000+0  10516-2 0  9998
2 36799  98.0666 305.5391 0004654 132.0998 228.0627 15.11828658792727
AEROCUBE 4.5A           
1 38767U 12048K   25037.86183363  .00028707  00000+0  97860-3 0  9997
2 38767  64.6503 272.0041 0107294 307.0466  52.0884 15.24856058296055
AEROCUBE 4.5B           
1 38768U 12048L   25038.69188790  .00277183  00000+0  16155-2 0  9990
2 38768  64.6353 162.8813 0048226 299.8484  59.7879 15.75742405297762
STRAND-1                
1 39090U 13009E   25037.47798021  .00000906  00000+0  32253-3 0  9991
2 39090  98.3789 225.4137 0007736 273.6066  86.4236 14.36624743625871
BRITE-AUSTRIA           
1 39091U 13009F   25037.51193077  .00000585  00000+0  21518-3 0  9992
2 39091  98.3842 224.7157 0009185 281.7670  78.2485 14.36179406625895
NEE-01 PEGASO           
1 39151U 13018B   25038.84933771  .00005180  00000+0  55055-3 0  9998
2 39151  98.0542 165.2320 0013774 353.5764   6.5274 14.89379330637011
ESTCUBE 1               
1 39161U 13021C   25038.73108189  .00003682  00000+0  50663-3 0  9993
2 39161  97.7985 104.0375 0008645 178.1361 181.9884 14.78842762631915
POPACS 1                
1 39268U 13055D   25037.53472645  .00058622 -19024-6  69406-3 0  9999
2 39268  80.9750 236.5235 0303487  42.4412 319.9855 15.21437774597289
POPACS 2                
1 39269U 13055E   25037.29658822  .00034116  00000+0  71046-3 0  9997
2 39269  81.0006 342.9110 0499864 322.6729  34.0684 14.69706953589824
POPACS 3                
1 39270U 13055F   25037.47486399  .00010776  00000+0  27787-3 0  9996
2 39270  81.0048  42.0748 0600186 127.5780 238.1500 14.44097099587398
ZACUBE-1 (TSHEPISOSAT)  
1 39417U 13066B   25038.83028088  .00009166  00000+0  83622-3 0  9990
2 39417  97.7649 356.7798 0048351  98.1830 262.4879 14.94413291606719
WNISAT-1                
1 39423U 13066H   25037.92835424  .00001494  00000+0  28694-3 0  9990
2 39423  97.6677 219.4149 0166671 351.9028   7.9487 14.56556172594599
TRITON-1                
1 39427U 13066M   25038.78706924  .00006531  00000+0  84852-3 0  9996
2 39427  97.8410 315.7291 0098041  42.1645 318.7054 14.77675843601151
DELFI-N3XT              
1 39428U 13066N   25038.77159733  .00013200  00000+0  14309-2 0  9996
2 39428  97.8374 318.0229 0091103  41.8713 318.9423 14.85275986601157
GOMX-1                  
1 39430U 13066Q   25038.41626734  .00004434  00000+0  70475-3 0  9996
2 39430  97.7007 264.5141 0133363 222.8511 136.2241 14.66739935597490
CUBEBUG-2 (LO-74)       
1 39440U 13066AA  25038.85266183  .00007285  00000+0  76991-3 0  9999
2 39440  97.8369 344.5068 0063037 219.9921 139.6645 14.88051707604528
NEE-02 KRYSAOR          
1 39441U 13066AB  25038.80121937  .00004411  00000+0  52464-3 0  9999
2 39441  97.8450 339.1419 0068784 247.7834 111.6073 14.83214812603983
FUNCUBE-1 (AO-73)       
1 39444U 13066AE  25038.81363637  .00012063  00000+0  97936-3 0  9993
2 39444  97.7482   0.7705 0043492  75.2937 285.3101 14.99029119605913
UWE-3                   
1 39446U 13066AG  25038.41449280  .00007426  00000+0  73653-3 0  9997
2 39446  97.8098 350.2887 0055945 161.9688 198.3532 14.90886921604288
BRITE-CA1 (TORONTO)     
1 40020U 14033L   25038.63933153  .00002089  00000+0  33088-3 0  9991
2 40020  97.9040 174.2111 0081939  60.1905 300.7417 14.71046443569573
DUCHIFAT-1              
1 40021U 14033M   25038.80860630  .00029111  00000+0  13203-2 0  9991
2 40021  98.1016  43.2344 0011013  31.8128 328.3769 15.20732280579765
NANOSATC-BR1            
1 40024U 14033Q   25037.91182719  .00020784  00000+0  11692-2 0  9997
2 40024  98.0864  27.7982 0007584  95.7869 264.4225 15.13272904578627
QB50P1                  
1 40025U 14033R   25037.86874574  .00014559  00000+0  97253-3 0  9990
2 40025  98.0718  14.0193 0013441 107.7638 252.5056 15.07040636578130
QB50P2                  
1 40032U 14033Y   25037.87371286  .00012332  00000+0  86588-3 0  9997
2 40032  98.0294   3.9533 0010976  62.8248 297.4095 15.05249144577896
PERSEUS-M2              
1 40037U 14033AD  25038.82248712  .00003775  00000+0  36984-3 0  9991
2 40037  97.9447 337.0453 0013728 132.4833 227.7548 14.92819295577459
PERSEUS-M1              
1 40039U 14033AF  25038.80523065  .00003873  00000+0  38003-3 0  9991
2 40039  97.9210 332.3782 0013483 131.6201 228.6175 14.92740885577319
POLYITAN-1              
1 40042U 14033AJ  25037.94210880  .00022460  00000+0  12682-2 0  9994
2 40042  98.0958  20.0289 0013191  66.5012 293.7602 15.13071077578200
TIGRISAT                
1 40043U 14033AK  25037.89444083  .00005125  00000+0  64111-3 0  9997
2 40043  97.7160 197.3270 0051558 257.5151 102.0291 14.81781147572182
AEROCUBE 6A             
1 40045U 14033AM  25037.93422127  .00012855  00000+0  13257-2 0  9991
2 40045  97.6796 209.3570 0044611 227.3197 132.4260 14.89595462572669
AEROCUBE 6B             
1 40046U 14033AN  25038.42389732  .00012867  00000+0  12931-2 0  9992
2 40046  97.6779 208.7885 0043141 219.5873 140.2193 14.90675205573191
CANX-4                  
1 40055U 14034C   25037.56926780  .00002616  00000+0  35567-3 0  9999
2 40055  98.3764 248.1467 0013398 156.8288 203.3529 14.79661639571220
CANX-5                  
1 40056U 14034D   25037.57275663  .00002593  00000+0  35251-3 0  9992
2 40056  98.3768 248.1658 0013422 157.0958 203.0854 14.79674020571228
UKUBE-1                 
1 40074U 14037F   25038.80470919  .00014366  00000+0  11063-2 0  9998
2 40074  98.3805 350.9018 0002471  54.0671 306.0780 15.01773976574043
BRITE-PL2 (HEWELIUSZ)   
1 40119U 14049B   25037.76631016  .00004796  00000+0  48378-3 0  9998
2 40119  97.8834 142.8966 0014006 314.4196  45.5875 14.91509446567512
AEROCUBE 5C             
1 40965U 15058B   25037.94090251  .00006328  00000+0  53672-3 0  9994
2 40965  64.7700 358.7648 0180948 238.1404 120.1987 14.86929819291897
AEROCUBE 7              
1 40966U 15058C   25038.59580174  .00006911  00000+0  55358-3 0  9996
2 40966  64.7669 347.8089 0173794 237.6893 120.7286 14.89768554292133
FOX-1A (AO-85)          
1 40967U 15058D   25038.36052210  .00006175  00000+0  53664-3 0  9997
2 40967  64.7775  12.1898 0177988 233.5550 124.9042 14.86423188 39892
SINOD-D 1               
1 40968U 15058E   25038.33266850  .00007794  00000+0  63319-3 0  9998
2 40968  64.7778   2.1783 0169360 232.5707 125.9893 14.89655924 42770
SNAP-3 ALICE            
1 40970U 15058G   25037.96377412  .00029724  00000+0  14589-2 0  9997
2 40970  64.7670 301.7228 0119141 231.2340 127.8092 15.11883259 41071
LMRST-SAT               
1 40971U 15058H   25038.41637394  .00005604  00000+0  48780-3 0  9999
2 40971  64.7775   7.6280 0179840 234.9369 123.4760 14.86258134 39903
SNAP-3 EDDIE            
1 40972U 15058J   25037.91167982  .00026888  00000+0  13037-2 0  9998
2 40972  64.7639 294.7697 0120127 232.1619 126.8586 15.12232955 43176
PROPCUBE 3              
1 40973U 15058K   25037.97011011  .00007257  00000+0  59298-3 0  9995
2 40973  64.7715 354.2598 0175297 236.6255 121.7978 14.88818936 40927
BISONSAT                
1 40974U 15058L   25038.84887627  .00014117  00000+0  88367-3 0  9999
2 40974  64.7662 314.8803 0144397 234.2309 124.5313 15.01302511 41019
SNAP-3 JIMI             
1 40975U 15058M   25037.96080141  .00010631  00000+0  77900-3 0  9996
2 40975  64.7693 337.7718 0162443 235.6859 122.8790 14.93917091 40014
PROPCUBE 1 (FLORA)      
1 40976U 15058N   25037.39308967  .00006495  00000+0  58423-3 0  9995
2 40976  64.7764  27.5828 0179134 236.7414 121.6422 14.84961639 42528
SINOD-D 3               
1 40977U 15058P   25038.32821316  .00007882  00000+0  66451-3 0  9999
2 40977  64.7748  15.1314 0170361 235.7377 122.7501 14.88181642 40951
HORYU-4                 
1 41340U 16012D   25037.89874876  .00028214  00000+0  96365-3 0  9994
2 41340  30.9973 232.4315 0005982 229.7818 130.2302 15.29096327493940
RAVAN                   
1 41849U 16067B   25037.52125796  .00024140  00000+0  96979-3 0  9993
2 41849  98.0557 236.7435 0010126 309.2721  50.7616 15.24902851451558
CELTEE 1                
1 41850U 16067C   25037.46802228  .00011096  00000+0  64639-3 0  9994
2 41850  98.1072 226.1998 0001620  98.3056 261.8357 15.12197580450767
